{"type": "FeatureCollection", "features": [{"type": "Feature", "properties": {"norad_id": 24876, "name": "GPS BIIR-2  (PRN 13)", "group": "gnss", "lat": 25.923232351507863, "lon": -93.92547658745139, "alt_km": 20182.20589199922, "timestamp": "2025-12-27T21:25:02.753658+00:00", "meta": {"OBJECT_NAME": "GPS BIIR-2  (PRN 13)", "OBJECT_ID": "1997-035A", "EPOCH": "2025-12-26T16:37:51.239424", "MEAN_MOTION": 2.00563658, "ECCENTRICITY": 0.0096861, "INCLINATION": 55.9017, "RA_OF_ASC_NODE": 105.3231, "ARG_OF_PERICENTER": 56.9183, "MEAN_ANOMALY": 304.0095, "EPHEMERIS_TYPE": 0, "CLASSIFICATION_TYPE": "U", "NORAD_CAT_ID": 24876, "ELEMENT_SET_NO": 999, "REV_AT_EPOCH": 20849, "BSTAR": 0, "MEAN_MOTION_DOT": 2.3e-07, "MEAN_MOTION_DDOT": 0}, "tle": {"line1": "1 24876U 97035A   25360.69295416  .00000023  00000+0  00000+0 0  9992", "line2": "2 24876  55.9017 105.3231 0096861  56.9183 304.0095  2.00563658208492"}}, "geometry": {"type": "Point", "coordinates": [-93.92547658745139, 25.923232351507863]}}, {"type": "Feature", "properties": {"norad_id": 26360, "name": "GPS BIIR-4  (PRN 20)", "group": "gnss", "lat": -44.66008292480788, "lon": -110.07098132843844, "alt_km": 20083.91330910274, "timestamp": "2025-12-27T21:25:02.753709+00:00", "meta": {"OBJECT_NAME": "GPS BIIR-4  (PRN 20)", "OBJECT_ID": "2000-025A", "EPOCH": "2025-12-27T03:31:58.663200", "MEAN_MOTION": 2.0056635, "ECCENTRICITY": 0.00388988, "INCLINATION": 55.0538, "RA_OF_ASC_NODE": 26.2552, "ARG_OF_PERICENTER": 243.3579, "MEAN_ANOMALY": 177.6691, "EPHEMERIS_TYPE": 0, "CLASSIFICATION_TYPE": "U", "NORAD_CAT_ID": 26360, "ELEMENT_SET_NO": 999, "REV_AT_EPOCH": 18782, "BSTAR": 0, "MEAN_MOTION_DOT": -5.6e-07, "MEAN_MOTION_DDOT": 0}, "tle": {"line1": "1 26360U 00025A   25361.14720675 -.00000056  00000+0  00000+0 0  9993", "line2": "2 26360  55.0538  26.2552 0038898 243.3579 177.6691  2.00566350187826"}}, "geometry": {"type": "Point", "coordinates": [-110.07098132843844, -44.66008292480788]}}, {"type": "Feature", "properties": {"norad_id": 26407, "name": "GPS BIIR-5  (PRN 22)", "group": "gnss", "lat": 53.594553313138235, "lon": -65.49447889399451, "alt_km": 20419.26722655043, "timestamp": "2025-12-27T21:25:02.753728+00:00", "meta": {"OBJECT_NAME": "GPS BIIR-5  (PRN 22)", "OBJECT_ID": "2000-040A", "EPOCH": "2025-12-27T11:36:30.034080", "MEAN_MOTION": 2.00568072, "ECCENTRICITY": 0.0125219, "INCLINATION": 54.8877, "RA_OF_ASC_NODE": 221.9826, "ARG_OF_PERICENTER": 302.0383, "MEAN_ANOMALY": 201.6627, "EPHEMERIS_TYPE": 0, "CLASSIFICATION_TYPE": "U", "NORAD_CAT_ID": 26407, "ELEMENT_SET_NO": 999, "REV_AT_EPOCH": 18650, "BSTAR": 0, "MEAN_MOTION_DOT": 8.1e-07, "MEAN_MOTION_DDOT": 0}, "tle": {"line1": "1 26407U 00040A   25361.48368095  .00000081  00000+0  00000+0 0  9990", "line2": "2 26407  54.8877 221.9826 0125219 302.0383 201.6627  2.00568072186503"}}, "geometry": {"type": "Point", "coordinates": [-65.49447889399451, 53.594553313138235]}}, {"type": "Feature", "properties": {"norad_id": 27663, "name": "GPS BIIR-8  (PRN 16)", "group": "gnss", "lat": -28.217109708752286, "lon": 63.9323506774965, "alt_km": 20561.443166454108, "timestamp": "2025-12-27T21:25:02.753743+00:00", "meta": {"OBJECT_NAME": "GPS BIIR-8  (PRN 16)", "OBJECT_ID": "2003-005A", "EPOCH": "2025-12-27T08:26:38.747040", "MEAN_MOTION": 2.00570012, "ECCENTRICITY": 0.0147941, "INCLINATION": 54.9202, "RA_OF_ASC_NODE": 221.7969, "ARG_OF_PERICENTER": 52.0116, "MEAN_ANOMALY": 132.4993, "EPHEMERIS_TYPE": 0, "CLASSIFICATION_TYPE": "U", "NORAD_CAT_ID": 27663, "ELEMENT_SET_NO": 999, "REV_AT_EPOCH": 16786, "BSTAR": 0, "MEAN_MOTION_DOT": 8e-07, "MEAN_MOTION_DDOT": 0}, "tle": {"line1": "1 27663U 03005A   25361.35183735  .00000080  00000+0  00000+0 0  9990", "line2": "2 27663  54.9202 221.7969 0147941  52.0116 132.4993  2.00570012167861"}}, "geometry": {"type": "Point", "coordinates": [63.9323506774965, -28.217109708752286]}}, {"type": "Feature", "properties": {"norad_id": 28190, "name": "GPS BIIR-11 (PRN 19)", "group": "gnss", "lat": 10.161393129350502, "lon": -70.18710537388073, "alt_km": 20443.63764596473, "timestamp": "2025-12-27T21:25:02.753758+00:00", "meta": {"OBJECT_NAME": "GPS BIIR-11 (PRN 19)", "OBJECT_ID": "2004-009A", "EPOCH": "2025-12-27T01:44:09.252384", "MEAN_MOTION": 2.00560169, "ECCENTRICITY": 0.01086232, "INCLINATION": 54.9727, "RA_OF_ASC_NODE": 282.6413, "ARG_OF_PERICENTER": 167.8785, "MEAN_ANOMALY": 332.9978, "EPHEMERIS_TYPE": 0, "CLASSIFICATION_TYPE": "U", "NORAD_CAT_ID": 28190, "ELEMENT_SET_NO": 999, "REV_AT_EPOCH": 15949, "BSTAR": 0, "MEAN_MOTION_DOT": -3.3e-07, "MEAN_MOTION_DDOT": 0}, "tle": {"line1": "1 28190U 04009A   25361.07232931 -.00000033  00000+0  00000+0 0  9992", "line2": "2 28190  54.9727 282.6413 0108623 167.8785 332.9978  2.00560169159492"}}, "geometry": {"type": "Point", "coordinates": [-70.18710537388073, 10.161393129350502]}}, {"type": "Feature", "properties": {"norad_id": 28474, "name": "GPS BIIR-13 (PRN 02)", "group": "gnss", "lat": 52.57567174196831, "lon": 36.918427748300694, "alt_km": 20433.420249857576, "timestamp": "2025-12-27T21:25:02.753771+00:00", "meta": {"OBJECT_NAME": "GPS BIIR-13 (PRN 02)", "OBJECT_ID": "2004-045A", "EPOCH": "2025-12-26T11:00:01.330272", "MEAN_MOTION": 2.00570057, "ECCENTRICITY": 0.0171007, "INCLINATION": 55.2338, "RA_OF_ASC_NODE": 331.8542, "ARG_OF_PERICENTER": 309.865, "MEAN_ANOMALY": 168.2197, "EPHEMERIS_TYPE": 0, "CLASSIFICATION_TYPE": "U", "NORAD_CAT_ID": 28474, "ELEMENT_SET_NO": 999, "REV_AT_EPOCH": 15496, "BSTAR": 0, "MEAN_MOTION_DOT": -5.9e-07, "MEAN_MOTION_DDOT": 0}, "tle": {"line1": "1 28474U 04045A   25360.45834873 -.00000059  00000+0  00000+0 0  9999", "line2": "2 28474  55.2338 331.8542 0171007 309.8650 168.2197  2.00570057154961"}}, "geometry": {"type": "Point", "coordinates": [36.918427748300694, 52.57567174196831]}}, {"type": "Feature", "properties": {"norad_id": 28874, "name": "GPS BIIRM-1 (PRN 17)", "group": "gnss", "lat": 27.569136183955717, "lon": -58.502699789008176, "alt_km": 20236.08744862659, "timestamp": "2025-12-27T21:25:02.753785+00:00", "meta": {"OBJECT_NAME": "GPS BIIRM-1 (PRN 17)", "OBJECT_ID": "2005-038A", "EPOCH": "2025-12-27T11:43:07.333248", "MEAN_MOTION": 2.00577349, "ECCENTRICITY": 0.0131147, "INCLINATION": 55.0187, "RA_OF_ASC_NODE": 280.107, "ARG_OF_PERICENTER": 293.9094, "MEAN_ANOMALY": 167.2168, "EPHEMERIS_TYPE": 0, "CLASSIFICATION_TYPE": "U", "NORAD_CAT_ID": 28874, "ELEMENT_SET_NO": 999, "REV_AT_EPOCH": 14839, "BSTAR": 0, "MEAN_MOTION_DOT": -3.1e-07, "MEAN_MOTION_DDOT": 0}, "tle": {"line1": "1 28874U 05038A   25361.48827932 -.00000031  00000+0  00000+0 0  9998", "line2": "2 28874  55.0187 280.1070 0131147 293.9094 167.2168  2.00577349148391"}}, "geometry": {"type": "Point", "coordinates": [-58.502699789008176, 27.569136183955717]}}, {"type": "Feature", "properties": {"norad_id": 28899, "name": "INMARSAT 4-F2 (SOUTHPAN/PRN 122)", "group": "gnss", "lat": 1.8506987723107104, "lon": -158.58748393813397, "alt_km": 35782.86557539895, "timestamp": "2025-12-27T21:25:02.753799+00:00", "meta": {"OBJECT_NAME": "INMARSAT 4-F2 (SOUTHPAN/PRN 122)", "OBJECT_ID": "2005-044A", "EPOCH": "2025-12-27T06:46:51.570048", "MEAN_MOTION": 1.00270915, "ECCENTRICITY": 0.0002646, "INCLINATION": 4.8699, "RA_OF_ASC_NODE": 43.7147, "ARG_OF_PERICENTER": 230.5744, "MEAN_ANOMALY": 66.9378, "EPHEMERIS_TYPE": 0, "CLASSIFICATION_TYPE": "U", "NORAD_CAT_ID": 28899, "ELEMENT_SET_NO": 999, "REV_AT_EPOCH": 7379, "BSTAR": 0, "MEAN_MOTION_DOT": -2.41e-06, "MEAN_MOTION_DDOT": 0}, "tle": {"line1": "1 28899U 05044A   25361.28254132 -.00000241  00000+0  00000+0 0  9999", "line2": "2 28899   4.8699  43.7147 0002646 230.5744  66.9378  1.00270915 73793"}}, "geometry": {"type": "Point", "coordinates": [-158.58748393813397, 1.8506987723107104]}}, {"type": "Feature", "properties": {"norad_id": 29486, "name": "GPS BIIRM-2 (PRN 31)", "group": "gnss", "lat": -48.325017015257245, "lon": 105.37762135936379, "alt_km": 20322.2744668865, "timestamp": "2025-12-27T21:25:02.753812+00:00", "meta": {"OBJECT_NAME": "GPS BIIRM-2 (PRN 31)", "OBJECT_ID": "2006-042A", "EPOCH": "2025-12-26T12:05:34.202112", "MEAN_MOTION": 2.00553566, "ECCENTRICITY": 0.010727, "INCLINATION": 54.6956, "RA_OF_ASC_NODE": 158.1947, "ARG_OF_PERICENTER": 52.2681, "MEAN_ANOMALY": 319.984, "EPHEMERIS_TYPE": 0, "CLASSIFICATION_TYPE": "U", "NORAD_CAT_ID": 29486, "ELEMENT_SET_NO": 999, "REV_AT_EPOCH": 14093, "BSTAR": 0, "MEAN_MOTION_DOT": 1.08e-06, "MEAN_MOTION_DDOT": 0}, "tle": {"line1": "1 29486U 06042A   25360.50386808  .00000108  00000+0  00000+0 0  9992", "line2": "2 29486  54.6956 158.1947 0107270  52.2681 319.9840  2.00553566140935"}}, "geometry": {"type": "Point", "coordinates": [105.37762135936379, -48.325017015257245]}}, {"type": "Feature", "properties": {"norad_id": 29601, "name": "GPS BIIRM-3 (PRN 12)", "group": "gnss", "lat": -6.165489095220203, "lon": -143.53760894860488, "alt_km": 20201.08850385, "timestamp": "2025-12-27T21:25:02.753825+00:00", "meta": {"OBJECT_NAME": "GPS BIIRM-3 (PRN 12)", "OBJECT_ID": "2006-052A", "EPOCH": "2025-12-25T21:48:25.793568", "MEAN_MOTION": 2.00574428, "ECCENTRICITY": 0.00879901, "INCLINATION": 54.968, "RA_OF_ASC_NODE": 220.8755, "ARG_OF_PERICENTER": 87.5984, "MEAN_ANOMALY": 273.4866, "EPHEMERIS_TYPE": 0, "CLASSIFICATION_TYPE": "U", "NORAD_CAT_ID": 29601, "ELEMENT_SET_NO": 999, "REV_AT_EPOCH": 13993, "BSTAR": 0, "MEAN_MOTION_DOT": 7.2e-07, "MEAN_MOTION_DDOT": 0}, "tle": {"line1": "1 29601U 06052A   25359.90863187  .00000072  00000+0  00000+0 0  9994", "line2": "2 29601  54.9680 220.8755 0087990  87.5984 273.4866  2.00574428139938"}}, "geometry": {"type": "Point", "coordinates": [-143.53760894860488, -6.165489095220203]}}]}